[{"OBJECT_NAME":"IRIDIUM 155","OBJECT_ID":"2018-061E","EPOCH":"2026-03-09T14:54:30.448800","MEAN_MOTION":14.34217216,"ECCENTRICITY":0.000198,"INCLINATION":86.3914,"RA_OF_ASC_NODE":98.3248,"ARG_OF_PERICENTER":94.0732,"MEAN_ANOMALY":266.069,"EPHEMERIS_TYPE":0,"CLASSIFICATION_TYPE":"U","NORAD_CAT_ID":43573,"ELEMENT_SET_NO":999,"REV_AT_EPOCH":39908,"BSTAR":-1.8836e-5,"MEAN_MOTION_DOT":-3.3e-7,"MEAN_MOTION_DDOT":0},{"OBJECT_NAME":"COSMOS 2251 DEB","OBJECT_ID":"1993-036XY","EPOCH":"2026-03-09T13:28:10.562304","MEAN_MOTION":14.30081278,"ECCENTRICITY":0.0026326,"INCLINATION":74.0371,"RA_OF_ASC_NODE":207.845,"ARG_OF_PERICENTER":238.9653,"MEAN_ANOMALY":246.7046,"EPHEMERIS_TYPE":0,"CLASSIFICATION_TYPE":"U","NORAD_CAT_ID":34678,"ELEMENT_SET_NO":999,"REV_AT_EPOCH":88620,"BSTAR":4.0252e-5,"MEAN_MOTION_DOT":7.8e-7,"MEAN_MOTION_DDOT":0}]
